ONEWEB-0207             
1 48242U 21031AJ  25242.78883273 -.00000343  00000+0 -96100-3 0  9998
2 48242  87.9095 347.4938 0001991 104.7035 255.4315 13.14502831210149
ONEWEB-0208             
1 48243U 21031AK  25242.84672782 -.00000131  00000+0 -38913-3 0  9990
2 48243  87.9092 347.4969 0001661 103.3137 256.8178 13.14502789210169
ONEWEB-0200             
1 48244U 21031AL  25242.81026153  .00000169  00000+0  42217-3 0  9994
2 48244  87.9085 347.4952 0001755 102.1348 257.9978 13.14502189210084
ONEWEB-0217             
1 48245U 21031AM  25242.82610411  .00000166  00000+0  41369-3 0  9996
2 48245  87.9095 347.4773 0001535 105.7806 254.3493 13.14503442210032
ONEWEB-0211             
1 48767U 21045A   25242.93589066 -.00000039  00000+0 -13714-3 0  9997
2 48767  87.9064 317.0410 0001624  93.0437 267.0879 13.16084453206263
ONEWEB-0223             
1 48768U 21045B   25242.73032862  .00000172  00000+0  42275-3 0  9993
2 48768  87.9054 317.1340 0001487  86.1634 273.9666 13.15547736206217
ONEWEB-0230             
1 48769U 21045C   25242.92998292 -.00000121  00000+0 -35425-3 0  9998
2 48769  87.9048 317.1285 0002041  96.0761 264.0602 13.15548007206502
ONEWEB-0237             
1 48770U 21045D   25242.69071242 -.00000021  00000+0 -90813-4 0  9993
2 48770  87.9070 317.1685 0001668  89.0861 271.0460 13.15548090206197
